0 etalon2 2021-02-26 0.11422380935168544 2021-02-19 2021-02-26
1 99999U          21057.00000000 +.00000000 +24020-2 +00000-0 4    00
2 99999 065.5351 016.5123 0016780 213.2317 219.9708 02.13209553    00
0 etalon2 2021-02-27 0.06987151633325572 2021-02-20 2021-02-27
1 99999U          21058.00000000 +.00000000 +10660-2 +20000-0 4    00
2 99999 065.5373 016.4784 0016788 213.3001 267.4327 02.13209560    00
0 etalon2 2021-02-28 0.03929159393466525 2021-02-21 2021-02-28
1 99999U          21059.00000000 +.00000000 +96823-3 +00000-0 4    00
2 99999 065.5395 016.4449 0016754 213.3575 314.9031 02.13209518    00
0 etalon2 2021-03-01 0.07634346809230957 2021-02-22 2021-03-01
1 99999U          21060.00000000 +.00000000 +00000-0 +00000-0 4    00
2 99999 065.5414 016.4120 0016710 213.3459 002.4415 02.13209537    00
0 etalon2 2021-03-02 0.048892473325913455 2021-02-23 2021-03-02
1 99999U          21061.00000000 +.00000000 +00000-0 +18207+3 4    00
2 99999 065.5424 016.3793 0016672 213.2407 050.0735 02.13209599    00
0 etalon2 2021-03-03 0.16375658050333722 2021-02-24 2021-03-03
1 99999U          21062.00000000 +.00000000 +00000-0 +99995+3 4    00
2 99999 065.5428 016.3467 0016659 212.9933 097.8480 02.13209654    00
0 etalon2 2021-03-04 0.19090354500355258 2021-02-25 2021-03-04
1 99999U          21063.00000000 +.00000000 +30213-2 +00000-0 4    00
2 99999 065.5425 016.3137 0016691 212.8280 145.5407 02.13209659    00
0 etalon2 2021-03-05 0.039656141516448924 2021-02-26 2021-03-05
1 99999U          21064.00000000 +.00000000 +97298-3 +00000-0 4    00
2 99999 065.5418 016.2802 0016727 212.7927 193.1032 02.13209592    00
0 etalon2 2021-03-06 0.19210562160454261 2021-02-27 2021-03-06
1 99999U          21065.00000000 +.00000000 +54847-2 +00000-0 4    00
2 99999 065.5411 016.2461 0016717 212.8026 240.6218 02.13209514    00
0 etalon2 2021-03-07 0.04271654821739011 2021-02-28 2021-03-07
1 99999U          21066.00000000 +.00000000 +80933-3 +00000-0 4    00
2 99999 065.5407 016.2116 0016721 212.9811 287.9745 02.13209533    00
0 etalon2 2021-03-08 0.043899653875518516 2021-03-01 2021-03-08
1 99999U          21067.00000000 +.00000000 +54644-3 +00000-0 4    00
2 99999 065.5409 016.1768 0016672 213.1147 335.3716 02.13209517    00
0 etalon2 2021-03-09 0.07919937514684504 2021-03-02 2021-03-09
1 99999U          21068.00000000 +.00000000 +00000-0 +00000-0 4    00
2 99999 065.5418 016.1419 0016616 213.1579 022.8591 02.13209540    00
0 etalon2 2021-03-10 0.03330891823523318 2021-03-03 2021-03-10
1 99999U          21069.00000000 +.00000000 +11314-2 +00000-0 4    00
2 99999 065.5432 016.1074 0016574 213.1444 070.4035 02.13209604    00
0 etalon2 2021-03-11 0.07226881549602962 2021-03-04 2021-03-11
1 99999U          21070.00000000 +.00000000 +00000-0 +00000-0 4    00
2 99999 065.5450 016.0733 0016575 213.0607 118.0169 02.13209596    00
0 etalon2 2021-03-12 0.08470577001265886 2021-03-05 2021-03-12
1 99999U          21071.00000000 +.00000000 +00000-0 +14773-0 4    00
2 99999 065.5469 016.0398 0016603 212.9671 165.6401 02.13209630    00
0 etalon2 2021-03-13 0.034857858021721616 2021-03-06 2021-03-13
1 99999U          21072.00000000 +.00000000 +13830-2 +00000-0 4    00
2 99999 065.5488 016.0068 0016640 212.9224 213.2124 02.13209603    00
0 etalon2 2021-03-14 0.05970534318456589 2021-03-07 2021-03-14
1 99999U          21073.00000000 +.00000000 +17423-2 +00000-0 4    00
2 99999 065.5502 015.9742 0016665 212.9877 260.6741 02.13209563    00
0 etalon2 2021-03-15 0.04563544051929988 2021-03-08 2021-03-15
1 99999U          21074.00000000 +.00000000 +90731-3 +00000-0 4    00
2 99999 065.5512 015.9417 0016676 213.1256 308.0630 02.13209525    00
0 etalon2 2021-03-16 0.09717029140852879 2021-03-09 2021-03-16
1 99999U          21075.00000000 +.00000000 +00000-0 +00000-0 4    00
2 99999 065.5517 015.9095 0016661 213.3055 355.4092 02.13209497    00
0 etalon2 2021-03-17 0.08422380703453622 2021-03-10 2021-03-17
1 99999U          21076.00000000 +.00000000 +89962-3 +00000-0 4    00
2 99999 065.5518 015.8768 0016631 213.3816 042.8599 02.13209535    00
0 etalon2 2021-03-18 0.09305255404867438 2021-03-11 2021-03-18
1 99999U          21077.00000000 +.00000000 +17006-2 +00000-0 4    00
2 99999 065.5514 015.8440 0016623 213.3665 090.4023 02.13209573    00
0 etalon2 2021-03-19 0.047987072427875865 2021-03-12 2021-03-19
1 99999U          21078.00000000 +.00000000 +10000-3 +42817+3 4    00
2 99999 065.5509 015.8110 0016645 213.3386 137.9588 02.13209613    00
0 etalon2 2021-03-20 0.04156362121039131 2021-03-13 2021-03-20
1 99999U          21079.00000000 +.00000000 +18958-2 +00000-0 4    00
2 99999 065.5502 015.7776 0016670 213.2155 185.6106 02.13209602    00
0 etalon2 2021-03-21 0.04967124677141509 2021-03-14 2021-03-21
1 99999U          21080.00000000 +.00000000 +14086-2 +20000-0 4    00
2 99999 065.5498 015.7437 0016707 213.1535 233.2023 02.13209608    00
0 etalon2 2021-03-22 0.0747258090295825 2021-03-15 2021-03-22
1 99999U          21081.00000000 +.00000000 +10000-3 +86504+3 4    00
2 99999 065.5497 015.7095 0016735 213.1497 280.7363 02.13209590    00
0 etalon2 2021-03-23 0.067114907378829 2021-03-16 2021-03-23
1 99999U          21082.00000000 +.00000000 +00000-0 +00000-0 4    00
2 99999 065.5500 015.6752 0016738 213.1812 328.2350 02.13209543    00
0 etalon2 2021-03-24 0.04368160475646023 2021-03-17 2021-03-24
1 99999U          21083.00000000 +.00000000 +10711-2 +00000-0 4    00
2 99999 065.5508 015.6409 0016721 213.1960 015.7500 02.13209520    00
0 etalon2 2021-03-25 0.04298402315931715 2021-03-18 2021-03-25
1 99999U          21084.00000000 +.00000000 +45658-3 +20000-0 4    00
2 99999 065.5522 015.6066 0016711 213.2153 063.2607 02.13209579    00
0 etalon2 2021-03-26 0.03564479468364203 2021-03-19 2021-03-26
1 99999U          21085.00000000 +.00000000 +42444-3 +00000-0 4    00
2 99999 065.5539 015.5729 0016715 213.1640 110.8408 02.13209608    00
0 etalon2 2021-03-27 0.12620403588491458 2021-03-20 2021-03-27
1 99999U          21086.00000000 +.00000000 +31298-2 +00000-0 4    00
2 99999 065.5557 015.5397 0016724 213.0182 158.5139 02.13209574    00
0 etalon2 2021-03-28 0.032750624306628257 2021-03-21 2021-03-28
1 99999U          21087.00000000 +.00000000 +16184-2 +00000-0 4    00
2 99999 065.5573 015.5069 0016747 212.9271 206.1322 02.13209602    00
0 etalon2 2021-03-29 0.042666645757305416 2021-03-22 2021-03-29
1 99999U          21088.00000000 +.00000000 +00000-0 +99999+3 4    00
2 99999 065.5583 015.4746 0016762 212.8429 253.7422 02.13209603    00
0 etalon2 2021-03-30 0.03716188968915945 2021-03-23 2021-03-30
1 99999U          21089.00000000 +.00000000 +19330-2 +20000-0 4    00
2 99999 065.5584 015.4423 0016754 212.7333 301.3772 02.13209566    00
0 etalon2 2021-03-31 0.07211616671512464 2021-03-24 2021-03-31
1 99999U          21090.00000000 +.00000000 +00000-0 +00000-0 4    00
2 99999 065.5576 015.4098 0016732 212.7424 348.8940 02.13209535    00
0 etalon2 2021-04-01 0.05640667346328496 2021-03-25 2021-04-01
1 99999U          21091.00000000 +.00000000 +00000-0 +00000-0 4    00
2 99999 065.5565 015.3767 0016703 212.7961 036.3670 02.13209532    00
0 etalon2 2021-04-02 0.05314973681969609 2021-03-26 2021-04-02
1 99999U          21092.00000000 +.00000000 +00000-0 +10000+4 4    00
2 99999 065.5552 015.3429 0016669 212.8081 083.8832 02.13209579    00
0 etalon2 2021-04-03 0.35637574395240046 2021-03-27 2021-04-03
1 99999U          21093.00000000 +.00000000 +41469-2 +00000-0 4    00
2 99999 065.5543 015.3083 0016634 212.7538 131.4652 02.13209501    00
0 etalon2 2021-04-04 0.05262576320416375 2021-03-28 2021-04-04
1 99999U          21094.00000000 +.00000000 +19335-2 +20000-0 4    00
2 99999 065.5538 015.2741 0016647 212.7777 178.9733 02.13209616    00
0 etalon2 2021-04-05 0.034273247682396646 2021-03-29 2021-04-05
1 99999U          21095.00000000 +.00000000 +17282-2 +00000-0 4    00
2 99999 065.5540 015.2395 0016659 212.7444 226.5369 02.13209605    00
0 etalon2 2021-04-06 0.03090902828042904 2021-03-30 2021-04-06
1 99999U          21096.00000000 +.00000000 +16813-2 +00000-0 4    00
2 99999 065.5548 015.2052 0016666 212.7329 274.0785 02.13209600    00
0 etalon2 2021-04-07 0.15920347909054386 2021-03-31 2021-04-07
1 99999U          21097.00000000 +.00000000 +11768-2 +00000-0 4    00
2 99999 065.5559 015.1713 0016656 212.7266 321.6149 02.13209612    00
0 etalon2 2021-04-08 0.03379323342883167 2021-04-01 2021-04-08
1 99999U          21098.00000000 +.00000000 +93956-3 +00000-0 4    00
2 99999 065.5573 015.1378 0016640 212.8419 009.0272 02.13209525    00
0 etalon2 2021-04-09 0.046854617518482716 2021-04-02 2021-04-09
1 99999U          21099.00000000 +.00000000 +51289-3 +00000-0 4    00
2 99999 065.5586 015.1048 0016617 212.9133 056.4831 02.13209523    00
0 etalon2 2021-04-10 0.04083623607740431 2021-04-03 2021-04-10
1 99999U          21100.00000000 +.00000000 +10412-3 +00000-0 4    00
2 99999 065.5595 015.0723 0016601 212.9673 103.9560 02.13209580    00
0 etalon2 2021-04-11 0.04551560007176667 2021-04-04 2021-04-11
1 99999U          21101.00000000 +.00000000 +24752-2 +00000-0 4    00
2 99999 065.5600 015.0399 0016607 212.9465 151.5031 02.13209601    00
0 etalon2 2021-04-12 0.036339788344165506 2021-04-05 2021-04-12
1 99999U          21102.00000000 +.00000000 +12287-2 +00000-0 4    00
2 99999 065.5600 015.0077 0016645 212.9444 199.0316 02.13209606    00
0 etalon2 2021-04-13 0.044929337886596483 2021-04-06 2021-04-13
1 99999U          21103.00000000 +.00000000 +32690-2 +20000-0 4    00
2 99999 065.5595 014.9753 0016683 212.9068 246.5958 02.13209604    00
0 etalon2 2021-04-14 0.04273188799644877 2021-04-07 2021-04-14
1 99999U          21104.00000000 +.00000000 +36996-3 +00000-0 4    00
2 99999 065.5586 014.9428 0016722 213.0104 294.0191 02.13209596    00
0 etalon2 2021-04-15 0.14890986612259435 2021-04-08 2021-04-15
1 99999U          21105.00000000 +.00000000 +37276-7 +00000-0 4    00
2 99999 065.5575 014.9098 0016732 213.0860 341.4717 02.13209598    00
